[
    {
        "Altitude(m)": 705009.9347825686,
        "Argument of Periapsis(deg)": 0.0034170363559881197,
        "Eccentricity": 0.0,
        "Inclination(deg)": 45.0,
        "Latitude(deg)": 34.27493618061796,
        "Longitude(deg)": -102.53453323370812,
        "Mean Anomaly(deg)": -307.44913500575575,
        "RAAN(deg)": 314.9967744175625,
        "Satellite Name": "Constellation 1 1389",
        "Satellite Number": 1389,
        "Semi-Major Axis(m)": 7083131.272910544,
        "Time(s)": 57
    },
    {
        "Altitude(m)": 705015.9087687068,
        "Argument of Periapsis(deg)": 0.003476984362233526,
        "Eccentricity": 0.0,
        "Inclination(deg)": 45.0,
        "Latitude(deg)": 34.30660406138061,
        "Longitude(deg)": -102.47597097935585,
        "Mean Anomaly(deg)": -307.3884338655059,
        "RAAN(deg)": 314.996717828397,
        "Satellite Name": "Constellation 1 1389",
        "Satellite Number": 1389,
        "Semi-Major Axis(m)": 7083131.272910544,
        "Time(s)": 58
    },
    {
        "Altitude(m)": 705021.8820592521,
        "Argument of Periapsis(deg)": 0.003536932368478932,
        "Eccentricity": 0.0,
        "Inclination(deg)": 45.0,
        "Latitude(deg)": 34.33823970145732,
        "Longitude(deg)": -102.4173618783586,
        "Mean Anomaly(deg)": -307.327732725256,
        "RAAN(deg)": 314.9966612392314,
        "Satellite Name": "Constellation 1 1389",
        "Satellite Number": 1389,
        "Semi-Major Axis(m)": 7083131.272910544,
        "Time(s)": 59
    },
    {
        "Altitude(m)": 705027.8546158423,
        "Argument of Periapsis(deg)": 0.003596880374724337,
        "Eccentricity": 0.0,
        "Inclination(deg)": 45.0,
        "Latitude(deg)": 34.369843039193675,
        "Longitude(deg)": -102.35870555132006,
        "Mean Anomaly(deg)": -307.26703158500607,
        "RAAN(deg)": 314.9966046500658,
        "Satellite Name": "Constellation 1 1389",
        "Satellite Number": 1389,
        "Semi-Major Axis(m)": 7083131.272910544,
        "Time(s)": 60
    },
    {
        "Altitude(m)": 705033.826400132,
        "Argument of Periapsis(deg)": 0.0036568283809697427,
        "Eccentricity": 0.0,
        "Inclination(deg)": 45.0,
        "Latitude(deg)": 34.40141401286838,
        "Longitude(deg)": -102.30000212331088,
        "Mean Anomaly(deg)": -307.2063304447562,
        "RAAN(deg)": 314.9965480609003,
        "Satellite Name": "Constellation 1 1389",
        "Satellite Number": 1389,
        "Semi-Major Axis(m)": 7083131.272910544,
        "Time(s)": 61
    },
    {
        "Altitude(m)": 705039.7973738082,
        "Argument of Periapsis(deg)": 0.003716776387215149,
        "Eccentricity": 0.0,
        "Inclination(deg)": 45.0,
        "Latitude(deg)": 34.43295256069288,
        "Longitude(deg)": -102.2412515514826,
        "Mean Anomaly(deg)": -307.14562930450626,
        "RAAN(deg)": 314.99649147173466,
        "Satellite Name": "Constellation 1 1389",
        "Satellite Number": 1389,
        "Semi-Major Axis(m)": 7083131.272910544,
        "Time(s)": 62
    },
    {
        "Altitude(m)": 705045.767498567,
        "Argument of Periapsis(deg)": 0.003776724393460554,
        "Eccentricity": 0.0,
        "Inclination(deg)": 45.0,
        "Latitude(deg)": 34.464458620811946,
        "Longitude(deg)": -102.18245379316521,
        "Mean Anomaly(deg)": -307.0849281642563,
        "RAAN(deg)": 314.99643488256913,
        "Satellite Name": "Constellation 1 1389",
        "Satellite Number": 1389,
        "Semi-Major Axis(m)": 7083131.272910544,
        "Time(s)": 63
    },
    {
        "Altitude(m)": 705051.736736124,
        "Argument of Periapsis(deg)": 0.003836672399705959,
        "Eccentricity": 0.0,
        "Inclination(deg)": 45.0,
        "Latitude(deg)": 34.495932131303356,
        "Longitude(deg)": -102.12360880586878,
        "Mean Anomaly(deg)": -307.02422702400645,
        "RAAN(deg)": 314.99637829340355,
        "Satellite Name": "Constellation 1 1389",
        "Satellite Number": 1389,
        "Semi-Major Axis(m)": 7083131.272910544,
        "Time(s)": 64
    },
    {
        "Altitude(m)": 705057.705048218,
        "Argument of Periapsis(deg)": 0.003896620405951365,
        "Eccentricity": 0.0,
        "Inclination(deg)": 45.0,
        "Latitude(deg)": 34.527373030178516,
        "Longitude(deg)": -102.06471654728439,
        "Mean Anomaly(deg)": -306.9635258837566,
        "RAAN(deg)": 314.99632170423797,
        "Satellite Name": "Constellation 1 1389",
        "Satellite Number": 1389,
        "Semi-Major Axis(m)": 7083131.272910544,
        "Time(s)": 65
    },
    {
        "Altitude(m)": 705063.6723966154,
        "Argument of Periapsis(deg)": 0.003956568412196771,
        "Eccentricity": 0.0,
        "Inclination(deg)": 45.0,
        "Latitude(deg)": 34.558781255382165,
        "Longitude(deg)": -102.0057769752854,
        "Mean Anomaly(deg)": -306.9028247435067,
        "RAAN(deg)": 314.99626511507245,
        "Satellite Name": "Constellation 1 1389",
        "Satellite Number": 1389,
        "Semi-Major Axis(m)": 7083131.272910544,
        "Time(s)": 66
    },
    {
        "Altitude(m)": 705069.6387430966,
        "Argument of Periapsis(deg)": 0.004016516418442176,
        "Eccentricity": 0.0,
        "Inclination(deg)": 45.0,
        "Latitude(deg)": 34.59015674479294,
        "Longitude(deg)": -101.94679021602542,
        "Mean Anomaly(deg)": -306.84212360325677,
        "RAAN(deg)": 314.9962085259068,
        "Satellite Name": "Constellation 1 1389",
        "Satellite Number": 1389,
        "Semi-Major Axis(m)": 7083131.272910544,
        "Time(s)": 67
    },
    {
        "Altitude(m)": 705075.6040494544,
        "Argument of Periapsis(deg)": 0.004076464424687581,
        "Eccentricity": 0.0,
        "Inclination(deg)": 45.0,
        "Latitude(deg)": 34.62149943622301,
        "Longitude(deg)": -101.88775589155193,
        "Mean Anomaly(deg)": -306.78142246300683,
        "RAAN(deg)": 314.9961519367412,
        "Satellite Name": "Constellation 1 1389",
        "Satellite Number": 1389,
        "Semi-Major Axis(m)": 7083131.272910544,
        "Time(s)": 68
    },
    {
        "Altitude(m)": 705081.5682775277,
        "Argument of Periapsis(deg)": 0.004136412430932987,
        "Eccentricity": 0.0,
        "Inclination(deg)": 45.0,
        "Latitude(deg)": 34.6528092674188,
        "Longitude(deg)": -101.82867412838903,
        "Mean Anomaly(deg)": -306.72072132275696,
        "RAAN(deg)": 314.9960953475757,
        "Satellite Name": "Constellation 1 1389",
        "Satellite Number": 1389,
        "Semi-Major Axis(m)": 7083131.272910544,
        "Time(s)": 69
    },
    {
        "Altitude(m)": 705087.5313891516,
        "Argument of Periapsis(deg)": 0.004196360437178394,
        "Eccentricity": 0.0,
        "Inclination(deg)": 45.0,
        "Latitude(deg)": 34.68408617606076,
        "Longitude(deg)": -101.76954488515071,
        "Mean Anomaly(deg)": -306.6600201825071,
        "RAAN(deg)": 314.9960387584101,
        "Satellite Name": "Constellation 1 1389",
        "Satellite Number": 1389,
        "Semi-Major Axis(m)": 7083131.272910544,
        "Time(s)": 70
    },
    {
        "Altitude(m)": 705093.4933461924,
        "Argument of Periapsis(deg)": 0.004256308443423799,
        "Eccentricity": 0.0,
        "Inclination(deg)": 45.0,
        "Latitude(deg)": 34.715330099763655,
        "Longitude(deg)": -101.71036812063913,
        "Mean Anomaly(deg)": -306.59931904225715,
        "RAAN(deg)": 314.9959821692446,
        "Satellite Name": "Constellation 1 1389",
        "Satellite Number": 1389,
        "Semi-Major Axis(m)": 7083131.272910544,
        "Time(s)": 71
    },
    {
        "Altitude(m)": 705099.4541105465,
        "Argument of Periapsis(deg)": 0.004316256449669204,
        "Eccentricity": 0.0,
        "Inclination(deg)": 45.0,
        "Latitude(deg)": 34.746540976076695,
        "Longitude(deg)": -101.65114379384573,
        "Mean Anomaly(deg)": -306.5386179020073,
        "RAAN(deg)": 314.99592558007896,
        "Satellite Name": "Constellation 1 1389",
        "Satellite Number": 1389,
        "Semi-Major Axis(m)": 7083131.272910544,
        "Time(s)": 72
    },
    {
        "Altitude(m)": 705105.4136441174,
        "Argument of Periapsis(deg)": 0.00437620445591461,
        "Eccentricity": 0.0,
        "Inclination(deg)": 45.0,
        "Latitude(deg)": 34.777718742483685,
        "Longitude(deg)": -101.59187186395255,
        "Mean Anomaly(deg)": -306.4779167617574,
        "RAAN(deg)": 314.9958689909134,
        "Satellite Name": "Constellation 1 1389",
        "Satellite Number": 1389,
        "Semi-Major Axis(m)": 7083131.272910544,
        "Time(s)": 73
    },
    {
        "Altitude(m)": 705111.3719088386,
        "Argument of Periapsis(deg)": 0.004436152462160016,
        "Eccentricity": 0.0,
        "Inclination(deg)": 45.0,
        "Latitude(deg)": 34.8088633364034,
        "Longitude(deg)": -101.53255245842996,
        "Mean Anomaly(deg)": -306.41721562150747,
        "RAAN(deg)": 314.99581240174786,
        "Satellite Name": "Constellation 1 1389",
        "Satellite Number": 1389,
        "Semi-Major Axis(m)": 7083131.272910544,
        "Time(s)": 74
    },
    {
        "Altitude(m)": 705117.3288666717,
        "Argument of Periapsis(deg)": 0.0044961004684054215,
        "Eccentricity": 0.0,
        "Inclination(deg)": 45.0,
        "Latitude(deg)": 34.83997469518912,
        "Longitude(deg)": -101.47318520065109,
        "Mean Anomaly(deg)": -306.3565144812576,
        "RAAN(deg)": 314.9957558125823,
        "Satellite Name": "Constellation 1 1389",
        "Satellite Number": 1389,
        "Semi-Major Axis(m)": 7083131.272910544,
        "Time(s)": 75
    }
]